[{"OBJECT_NAME":"ONEWEB-0528","OBJECT_ID":"2022-166B","EPOCH":"2026-04-05T04:56:09.221856","MEAN_MOTION":13.21967271,"ECCENTRICITY":0.0001945,"INCLINATION":87.918,"RA_OF_ASC_NODE":258.5411,"ARG_OF_PERICENTER":94.835,"MEAN_ANOMALY":265.3007,"EPHEMERIS_TYPE":0,"CLASSIFICATION_TYPE":"U","NORAD_CAT_ID":54643,"ELEMENT_SET_NO":999,"REV_AT_EPOCH":16190,"BSTAR":0.00012859999999999998,"MEAN_MOTION_DOT":6.6e-07,"MEAN_MOTION_DDOT":0.0},{"OBJECT_NAME":"ONEWEB-0539","OBJECT_ID":"2022-166C","EPOCH":"2026-04-05T04:02:12.117984","MEAN_MOTION":13.21796323,"ECCENTRICITY":0.0001777,"INCLINATION":87.9189,"RA_OF_ASC_NODE":258.5155,"ARG_OF_PERICENTER":105.3382,"MEAN_ANOMALY":254.7948,"EPHEMERIS_TYPE":0,"CLASSIFICATION_TYPE":"U","NORAD_CAT_ID":54644,"ELEMENT_SET_NO":999,"REV_AT_EPOCH":16189,"BSTAR":-0.00017405,"MEAN_MOTION_DOT":-5.9e-07,"MEAN_MOTION_DDOT":0.0},{"OBJECT_NAME":"ONEWEB-0540","OBJECT_ID":"2022-166D","EPOCH":"2026-04-05T04:11:59.338176","MEAN_MOTION":13.21770098,"ECCENTRICITY":0.000175,"INCLINATION":87.918,"RA_OF_ASC_NODE":258.5492,"ARG_OF_PERICENTER":100.6678,"MEAN_ANOMALY":259.4654,"EPHEMERIS_TYPE":0,"CLASSIFICATION_TYPE":"U","NORAD_CAT_ID":54645,"ELEMENT_SET_NO":999,"REV_AT_EPOCH":16188,"BSTAR":-0.00037232,"MEAN_MOTION_DOT":-1.41e-06,"MEAN_MOTION_DDOT":0.0},{"OBJECT_NAME":"ONEWEB-0542","OBJECT_ID":"2022-166E","EPOCH":"2026-04-05T04:16:34.701024","MEAN_MOTION":13.21756382,"ECCENTRICITY":0.0001762,"INCLINATION":87.9192,"RA_OF_ASC_NODE":258.5108,"ARG_OF_PERICENTER":107.6412,"MEAN_ANOMALY":252.4915,"EPHEMERIS_TYPE":0,"CLASSIFICATION_TYPE":"U","NORAD_CAT_ID":54646,"ELEMENT_SET_NO":999,"REV_AT_EPOCH":16189,"BSTAR":-0.0005778100000000001,"MEAN_MOTION_DOT":-2.25e-06,"MEAN_MOTION_DDOT":0.0},{"OBJECT_NAME":"ONEWEB-0545","OBJECT_ID":"2022-166F","EPOCH":"2026-04-05T03:26:15.006336","MEAN_MOTION":13.2190035,"ECCENTRICITY":0.0001658,"INCLINATION":87.918,"RA_OF_ASC_NODE":258.5357,"ARG_OF_PERICENTER":114.2958,"MEAN_ANOMALY":245.8349,"EPHEMERIS_TYPE":0,"CLASSIFICATION_TYPE":"U","NORAD_CAT_ID":54647,"ELEMENT_SET_NO":999,"REV_AT_EPOCH":16185,"BSTAR":3.0256e-05,"MEAN_MOTION_DOT":2.6e-07,"MEAN_MOTION_DDOT":0.0},{"OBJECT_NAME":"ONEWEB-0580","OBJECT_ID":"2022-166G","EPOCH":"2026-04-05T04:38:09.348864","MEAN_MOTION":13.21693039,"ECCENTRICITY":0.0001563,"INCLINATION":87.9184,"RA_OF_ASC_NODE":258.5255,"ARG_OF_PERICENTER":107.5663,"MEAN_ANOMALY":252.5642,"EPHEMERIS_TYPE":0,"CLASSIFICATION_TYPE":"U","NORAD_CAT_ID":54648,"ELEMENT_SET_NO":999,"REV_AT_EPOCH":16190,"BSTAR":-0.00041704999999999997,"MEAN_MOTION_DOT":-1.59e-06,"MEAN_MOTION_DDOT":0.0},{"OBJECT_NAME":"ONEWEB-0582","OBJECT_ID":"2022-166H","EPOCH":"2026-04-05T03:50:13.165440","MEAN_MOTION":13.21831074,"ECCENTRICITY":0.000167,"INCLINATION":87.9181,"RA_OF_ASC_NODE":258.525,"ARG_OF_PERICENTER":112.2777,"MEAN_ANOMALY":247.8534,"EPHEMERIS_TYPE":0,"CLASSIFICATION_TYPE":"U","NORAD_CAT_ID":54649,"ELEMENT_SET_NO":999,"REV_AT_EPOCH":16187,"BSTAR":-9.3671e-05,"MEAN_MOTION_DOT":-2.6e-07,"MEAN_MOTION_DDOT":0.0},{"OBJECT_NAME":"ONEWEB-0583","OBJECT_ID":"2022-166J","EPOCH":"2026-04-05T04:07:00.184224","MEAN_MOTION":13.21785676,"ECCENTRICITY":0.0001753,"INCLINATION":87.918,"RA_OF_ASC_NODE":258.5457,"ARG_OF_PERICENTER":102.0229,"MEAN_ANOMALY":258.1102,"EPHEMERIS_TYPE":0,"CLASSIFICATION_TYPE":"U","NORAD_CAT_ID":54650,"ELEMENT_SET_NO":999,"REV_AT_EPOCH":16188,"BSTAR":0.00011947,"MEAN_MOTION_DOT":6.2e-07,"MEAN_MOTION_DDOT":0.0},{"OBJECT_NAME":"ONEWEB-0584","OBJECT_ID":"2022-166K","EPOCH":"2026-04-05T04:35:46.170240","MEAN_MOTION":13.217006,"ECCENTRICITY":0.0001596,"INCLINATION":87.9181,"RA_OF_ASC_NODE":258.5288,"ARG_OF_PERICENTER":105.4931,"MEAN_ANOMALY":254.6379,"EPHEMERIS_TYPE":0,"CLASSIFICATION_TYPE":"U","NORAD_CAT_ID":54651,"ELEMENT_SET_NO":999,"REV_AT_EPOCH":16187,"BSTAR":-0.0005338000000000001,"MEAN_MOTION_DOT":-2.07e-06,"MEAN_MOTION_DDOT":0.0},{"OBJECT_NAME":"ONEWEB-0585","OBJECT_ID":"2022-166L","EPOCH":"2026-04-05T03:21:30.185280","MEAN_MOTION":13.21914906,"ECCENTRICITY":0.0001738,"INCLINATION":87.9178,"RA_OF_ASC_NODE":258.5239,"ARG_OF_PERICENTER":92.4237,"MEAN_ANOMALY":267.7096,"EPHEMERIS_TYPE":0,"CLASSIFICATION_TYPE":"U","NORAD_CAT_ID":54652,"ELEMENT_SET_NO":999,"REV_AT_EPOCH":16187,"BSTAR":0.00076335,"MEAN_MOTION_DOT":3.29e-06,"MEAN_MOTION_DDOT":0.0},{"OBJECT_NAME":"ONEWEB-0586","OBJECT_ID":"2022-166M","EPOCH":"2026-04-05T03:40:40.603008","MEAN_MOTION":13.21861501,"ECCENTRICITY":0.0001754,"INCLINATION":87.918,"RA_OF_ASC_NODE":258.547,"ARG_OF_PERICENTER":103.9736,"MEAN_ANOMALY":256.1594,"EPHEMERIS_TYPE":0,"CLASSIFICATION_TYPE":"U","NORAD_CAT_ID":54653,"ELEMENT_SET_NO":999,"REV_AT_EPOCH":16187,"BSTAR":0.00033978000000000003,"MEAN_MOTION_DOT":1.53e-06,"MEAN_MOTION_DDOT":0.0},{"OBJECT_NAME":"ONEWEB-0587","OBJECT_ID":"2022-166N","EPOCH":"2026-04-05T03:55:02.201088","MEAN_MOTION":13.21820532,"ECCENTRICITY":0.0001948,"INCLINATION":87.9193,"RA_OF_ASC_NODE":258.5114,"ARG_OF_PERICENTER":87.0534,"MEAN_ANOMALY":273.0823,"EPHEMERIS_TYPE":0,"CLASSIFICATION_TYPE":"U","NORAD_CAT_ID":54654,"ELEMENT_SET_NO":999,"REV_AT_EPOCH":16203,"BSTAR":0.0002232,"MEAN_MOTION_DOT":1.05e-06,"MEAN_MOTION_DDOT":0.0},{"OBJECT_NAME":"ONEWEB-0589","OBJECT_ID":"2022-166P","EPOCH":"2026-04-05T03:35:51.214848","MEAN_MOTION":13.21874782,"ECCENTRICITY":0.0001417,"INCLINATION":87.9177,"RA_OF_ASC_NODE":258.5358,"ARG_OF_PERICENTER":127.681,"MEAN_ANOMALY":232.4453,"EPHEMERIS_TYPE":0,"CLASSIFICATION_TYPE":"U","NORAD_CAT_ID":54655,"ELEMENT_SET_NO":999,"REV_AT_EPOCH":16189,"BSTAR":0.00024467,"MEAN_MOTION_DOT":1.14e-06,"MEAN_MOTION_DDOT":0.0},{"OBJECT_NAME":"ONEWEB-0590","OBJECT_ID":"2022-166Q","EPOCH":"2026-04-05T04:11:35.721600","MEAN_MOTION":13.21769999,"ECCENTRICITY":0.0001382,"INCLINATION":87.9187,"RA_OF_ASC_NODE":258.5136,"ARG_OF_PERICENTER":88.7991,"MEAN_ANOMALY":271.3301,"EPHEMERIS_TYPE":0,"CLASSIFICATION_TYPE":"U","NORAD_CAT_ID":54656,"ELEMENT_SET_NO":999,"REV_AT_EPOCH":16188,"BSTAR":-0.00044793000000000003,"MEAN_MOTION_DOT":-1.72e-06,"MEAN_MOTION_DDOT":0.0},{"OBJECT_NAME":"ONEWEB-0591","OBJECT_ID":"2022-166R","EPOCH":"2026-04-05T04:28:34.216896","MEAN_MOTION":13.21722107,"ECCENTRICITY":0.0001727,"INCLINATION":87.9181,"RA_OF_ASC_NODE":258.5312,"ARG_OF_PERICENTER":95.9951,"MEAN_ANOMALY":264.138,"EPHEMERIS_TYPE":0,"CLASSIFICATION_TYPE":"U","NORAD_CAT_ID":54657,"ELEMENT_SET_NO":999,"REV_AT_EPOCH":16191,"BSTAR":-0.0008749900000000001,"MEAN_MOTION_DOT":-3.48e-06,"MEAN_MOTION_DDOT":0.0},{"OBJECT_NAME":"ONEWEB-0592","OBJECT_ID":"2022-166S","EPOCH":"2026-04-04T23:06:19.137600","MEAN_MOTION":13.2170764,"ECCENTRICITY":0.0001749,"INCLINATION":87.919,"RA_OF_ASC_NODE":258.5484,"ARG_OF_PERICENTER":96.8818,"MEAN_ANOMALY":263.2515,"EPHEMERIS_TYPE":0,"CLASSIFICATION_TYPE":"U","NORAD_CAT_ID":54658,"ELEMENT_SET_NO":999,"REV_AT_EPOCH":16176,"BSTAR":-0.0011969,"MEAN_MOTION_DOT":-4.8e-06,"MEAN_MOTION_DDOT":0.0},{"OBJECT_NAME":"ONEWEB-0593","OBJECT_ID":"2022-166T","EPOCH":"2026-04-05T05:05:42.109152","MEAN_MOTION":13.21929576,"ECCENTRICITY":0.0001765,"INCLINATION":87.918,"RA_OF_ASC_NODE":258.5156,"ARG_OF_PERICENTER":102.7648,"MEAN_ANOMALY":257.3684,"EPHEMERIS_TYPE":0,"CLASSIFICATION_TYPE":"U","NORAD_CAT_ID":54659,"ELEMENT_SET_NO":999,"REV_AT_EPOCH":16190,"BSTAR":0.00031612000000000003,"MEAN_MOTION_DOT":1.44e-06,"MEAN_MOTION_DDOT":0.0},{"OBJECT_NAME":"ONEWEB-0594","OBJECT_ID":"2022-166U","EPOCH":"2026-04-05T05:34:25.941216","MEAN_MOTION":13.21846111,"ECCENTRICITY":0.0001819,"INCLINATION":87.9178,"RA_OF_ASC_NODE":258.5292,"ARG_OF_PERICENTER":95.1065,"MEAN_ANOMALY":265.0277,"EPHEMERIS_TYPE":0,"CLASSIFICATION_TYPE":"U","NORAD_CAT_ID":54660,"ELEMENT_SET_NO":999,"REV_AT_EPOCH":16192,"BSTAR":-9.084600000000001e-06,"MEAN_MOTION_DOT":9e-08,"MEAN_MOTION_DDOT":0.0},{"OBJECT_NAME":"ONEWEB-0595","OBJECT_ID":"2022-166V","EPOCH":"2026-04-05T05:00:54.581184","MEAN_MOTION":13.21942697,"ECCENTRICITY":0.0001709,"INCLINATION":87.9188,"RA_OF_ASC_NODE":258.5085,"ARG_OF_PERICENTER":89.8176,"MEAN_ANOMALY":270.3154,"EPHEMERIS_TYPE":0,"CLASSIFICATION_TYPE":"U","NORAD_CAT_ID":54661,"ELEMENT_SET_NO":999,"REV_AT_EPOCH":16189,"BSTAR":0.0005718499999999999,"MEAN_MOTION_DOT":2.5e-06,"MEAN_MOTION_DDOT":0.0},{"OBJECT_NAME":"ONEWEB-0596","OBJECT_ID":"2022-166W","EPOCH":"2026-04-05T04:23:46.802112","MEAN_MOTION":13.2173611,"ECCENTRICITY":0.0001738,"INCLINATION":87.9184,"RA_OF_ASC_NODE":258.5296,"ARG_OF_PERICENTER":93.7239,"MEAN_ANOMALY":266.4094,"EPHEMERIS_TYPE":0,"CLASSIFICATION_TYPE":"U","NORAD_CAT_ID":54662,"ELEMENT_SET_NO":999,"REV_AT_EPOCH":16189,"BSTAR":-0.00010031,"MEAN_MOTION_DOT":-2.8e-07,"MEAN_MOTION_DDOT":0.0},{"OBJECT_NAME":"ONEWEB-0597","OBJECT_ID":"2022-166X","EPOCH":"2026-04-04T20:41:23.527968","MEAN_MOTION":13.21813961,"ECCENTRICITY":0.0001702,"INCLINATION":87.9183,"RA_OF_ASC_NODE":258.5982,"ARG_OF_PERICENTER":101.787,"MEAN_ANOMALY":258.3455,"EPHEMERIS_TYPE":0,"CLASSIFICATION_TYPE":"U","NORAD_CAT_ID":54663,"ELEMENT_SET_NO":999,"REV_AT_EPOCH":16185,"BSTAR":-0.0018214,"MEAN_MOTION_DOT":-7.39e-06,"MEAN_MOTION_DDOT":0.0},{"OBJECT_NAME":"ONEWEB-0600","OBJECT_ID":"2022-166Y","EPOCH":"2026-04-05T03:31:05.642976","MEAN_MOTION":13.21888426,"ECCENTRICITY":0.0001948,"INCLINATION":87.9179,"RA_OF_ASC_NODE":258.5328,"ARG_OF_PERICENTER":102.1836,"MEAN_ANOMALY":257.9516,"EPHEMERIS_TYPE":0,"CLASSIFICATION_TYPE":"U","NORAD_CAT_ID":54664,"ELEMENT_SET_NO":999,"REV_AT_EPOCH":16186,"BSTAR":0.00028417,"MEAN_MOTION_DOT":1.31e-06,"MEAN_MOTION_DDOT":0.0},{"OBJECT_NAME":"ONEWEB-0601","OBJECT_ID":"2022-166Z","EPOCH":"2026-04-04T23:41:06.638496","MEAN_MOTION":13.21918766,"ECCENTRICITY":0.0001575,"INCLINATION":87.9179,"RA_OF_ASC_NODE":258.5815,"ARG_OF_PERICENTER":107.459,"MEAN_ANOMALY":252.6717,"EPHEMERIS_TYPE":0,"CLASSIFICATION_TYPE":"U","NORAD_CAT_ID":54665,"ELEMENT_SET_NO":999,"REV_AT_EPOCH":16203,"BSTAR":0.0020139000000000003,"MEAN_MOTION_DOT":8.46e-06,"MEAN_MOTION_DDOT":0.0}]